[
  {
    "id": 1,
    "name": "Dr. Emily Johnson",
    "city": "New York",
    "zip": "10001",
    "profile_picture": "https://randomuser.me/api/portraits/women/1.jpg"
  },
  {
    "id": 2,
    "name": "Dr. Michael Smith",
    "city": "Los Angeles",
    "zip": "90001",
    "profile_picture": "https://randomuser.me/api/portraits/men/2.jpg"
  },
  {
    "id": 3,
    "name": "Dr. Sarah Brown",
    "city": "Chicago",
    "zip": "60601",
    "profile_picture": "https://randomuser.me/api/portraits/women/3.jpg"
  },
  {
    "id": 4,
    "name": "Dr. David Williams",
    "city": "Houston",
    "zip": "77001",
    "profile_picture": "https://randomuser.me/api/portraits/men/4.jpg"
  },
  {
    "id": 5,
    "name": "Dr. Linda Jones",
    "city": "Phoenix",
    "zip": "85001",
    "profile_picture": "https://randomuser.me/api/portraits/women/5.jpg"
  },
  {
    "id": 6,
    "name": "Dr. James Garcia",
    "city": "Philadelphia",
    "zip": "19101",
    "profile_picture": "https://randomuser.me/api/portraits/men/6.jpg"
  },
  {
    "id": 7,
    "name": "Dr. Patricia Martinez",
    "city": "San Antonio",
    "zip": "78201",
    "profile_picture": "https://randomuser.me/api/portraits/women/7.jpg"
  },
  {
    "id": 8,
    "name": "Dr. Robert Hernandez",
    "city": "San Diego",
    "zip": "92101",
    "profile_picture": "https://randomuser.me/api/portraits/men/8.jpg"
  },
  {
    "id": 9,
    "name": "Dr. Barbara Lopez",
    "city": "Dallas",
    "zip": "75201",
    "profile_picture": "https://randomuser.me/api/portraits/women/9.jpg"
  },
  {
    "id": 10,
    "name": "Dr. John Wilson",
    "city": "San Jose",
    "zip": "95101",
    "profile_picture": "https://randomuser.me/api/portraits/men/10.jpg"
  },
  {
    "id": 11,
    "name": "Dr. Susan Clark",
    "city": "Austin",
    "zip": "73301",
    "profile_picture": "https://randomuser.me/api/portraits/women/10.jpg"
  },
  {
    "id": 12,
    "name": "Dr. Christopher Lewis",
    "city": "Jacksonville",
    "zip": "32099",
    "profile_picture": "https://randomuser.me/api/portraits/men/11.jpg"
  },
  {
    "id": 13,
    "name": "Dr. Jessica Lee",
    "city": "Fort Worth",
    "zip": "76101",
    "profile_picture": "https://randomuser.me/api/portraits/women/11.jpg"
  },
  {
    "id": 14,
    "name": "Dr. Thomas Walker",
    "city": "Columbus",
    "zip": "43004",
    "profile_picture": "https://randomuser.me/api/portraits/men/12.jpg"
  },
  {
    "id": 15,
    "name": "Dr. Karen Hall",
    "city": "Charlotte",
    "zip": "28201",
    "profile_picture": "https://randomuser.me/api/portraits/women/12.jpg"
  },
  {
    "id": 16,
    "name": "Dr. Daniel Allen",
    "city": "San Francisco",
    "zip": "94101",
    "profile_picture": "https://randomuser.me/api/portraits/men/13.jpg"
  },
  {
    "id": 17,
    "name": "Dr. Nancy Young",
    "city": "Indianapolis",
    "zip": "46201",
    "profile_picture": "https://randomuser.me/api/portraits/women/13.jpg"
  },
  {
    "id": 18,
    "name": "Dr. Paul King",
    "city": "Seattle",
    "zip": "98101",
    "profile_picture": "https://randomuser.me/api/portraits/men/14.jpg"
  },
  {
    "id": 19,
    "name": "Dr. Sandra Wright",
    "city": "Denver",
    "zip": "80201",
    "profile_picture": "https://randomuser.me/api/portraits/women/14.jpg"
  },
  {
    "id": 20,
    "name": "Dr. Mark Scott",
    "city": "Washington",
    "zip": "20001",
    "profile_picture": "https://randomuser.me/api/portraits/men/15.jpg"
  },
  {
    "id": 21,
    "name": "Dr. Betty Green",
    "city": "Boston",
    "zip": "02101",
    "profile_picture": "https://randomuser.me/api/portraits/women/15.jpg"
  }
]
